[{"OBJECT_NAME":"CS2","OBJECT_ID":"2021-088C","EPOCH":"2026-03-09T17:38:11.846112","MEAN_MOTION":15.3325593,"ECCENTRICITY":0.00116375,"INCLINATION":97.3928,"RA_OF_ASC_NODE":134.2907,"ARG_OF_PERICENTER":82.3491,"MEAN_ANOMALY":277.9072,"EPHEMERIS_TYPE":0,"CLASSIFICATION_TYPE":"U","NORAD_CAT_ID":49262,"ELEMENT_SET_NO":999,"REV_AT_EPOCH":24526,"BSTAR":0.0005617759,"MEAN_MOTION_DOT":0.00018033,"MEAN_MOTION_DDOT":0},{"OBJECT_NAME":"JILIN-1 GAOFEN 03D49","OBJECT_ID":"2022-167N","EPOCH":"2026-03-09T23:57:17.118720","MEAN_MOTION":15.3490547,"ECCENTRICITY":0.00068038,"INCLINATION":97.6714,"RA_OF_ASC_NODE":234.8733,"ARG_OF_PERICENTER":127.8933,"MEAN_ANOMALY":232.2925,"EPHEMERIS_TYPE":0,"CLASSIFICATION_TYPE":"U","NORAD_CAT_ID":54694,"ELEMENT_SET_NO":999,"REV_AT_EPOCH":18026,"BSTAR":0.00051753854,"MEAN_MOTION_DOT":0.00017467,"MEAN_MOTION_DDOT":0}]
